satname,norad_id,inclination_deg,eccentricity,mean_motion_rev_per_day,perigee_km,apogee_km,l1,l2
STARLINK-1008,44714,53.055,0.0001381,15.06397244,546.2636128918703,548.1763964965676,1 44714U 19074B   25248.86247333  .00000536  00000+0  54891-4 0  9992,2 44714  53.0550 296.3434 0001381  91.9301 268.1846 15.06397244320895
STARLINK-1010,44716,53.051,0.0011457,15.74947853,337.07713032878746,352.4820213706889,1 44716U 19074D   25249.30091244  .00128401  00000+0  83654-3 0  9992,2 44716  53.0510 250.7324 0011457   3.7395 356.3707 15.74947853321556
STARLINK-1011,44717,53.0528,0.0005359,15.64020229,372.43846431211205,379.67761055323354,1 44717U 19074E   25249.17545857  .00141056  00000+0  14454-2 0  9994,2 44717  53.0528 304.0504 0005359 351.3516   8.7404 15.64020229320818
STARLINK-1012,44718,53.0543,0.0001604,15.06394442,546.1177638191239,548.3394211011837,1 44718U 19074F   25249.23845300  .00007150  00000+0  49851-3 0  9994,2 44718  53.0543 294.6526 0001604  79.3823 280.7347 15.06394442320940
STARLINK-1015,44721,53.0454,0.0004309,15.91095968,296.3375287601557,302.0920705410954,1 44721U 19074J   25249.25002315  .00214801  28136-4  67198-3 0  9993,2 44721  53.0454 240.5747 0004309   0.3804 242.9722 15.91095968  5849
STARLINK-1017,44723,53.0543,0.0002183,15.10228912,533.9920473148022,537.0105417942041,1 44723U 19074L   25248.83539203  .00029290  00000+0  17816-2 0  9991,2 44723  53.0543 295.3728 0002183 311.6111  48.4692 15.10228912320904
STARLINK-1019,44724,53.0546,0.0001383,15.06389985,546.2844726902695,548.2000325915496,1 44724U 19074M   25249.16840699  .00001557  00000+0  12341-3 0  9998,2 44724  53.0546 294.9694 0001383  86.8853 273.2295 15.06389985320933
STARLINK-1020,44725,53.0558,0.000124,15.06429709,546.2617736978918,547.9792375592879,1 44725U 19074N   25249.17390810  .00006032  00000+0  42316-3 0  9993,2 44725  53.0558 314.9442 0001240  80.2549 279.8580 15.06429709320650
STARLINK-1021,44726,53.0448,0.0004397,15.85380863,312.30945042953044,318.1956171855609,1 44726U 19074P   25249.25002315  .00147268  00000+0  59578-3 0  9998,2 44726  53.0448 245.8851 0004397 339.3993 240.0011 15.85380863  6050
STARLINK-1029,44734,53.0528,0.0009564,15.80674421,322.1180235026595,334.94654050527697,1 44734U 19074X   25249.25002315  .00267374  00000+0  13254-2 0  9998,2 44734  53.0528 169.1588 0009564  65.9741 300.2503 15.80674421  6031
STARLINK-1030,44735,53.0401,0.0001071,15.99826502,274.1871233580205,275.6122038113599,1 44735U 19074Y   25249.25002315  .01445505  11628-2  28296-2 0  9997,2 44735  53.0401 263.2709 0001071  97.2816 243.5097 15.99826502  6079
STARLINK-1031,44736,53.0558,0.0005503,15.35521007,455.61071637947407,463.1360803238995,1 44736U 19074Z   25249.28063881  .00088821  00000+0  25165-2 0  9990,2 44736  53.0558 297.2885 0005503 316.4716  43.5851 15.35521007320925
STARLINK-1036,44741,53.055,0.0001423,15.06398368,546.2310819761851,548.2020375993006,1 44741U 19074AE  25248.47361030  .00002307  00000+0  17372-3 0  9990,2 44741  53.0550 318.0914 0001423  87.7636 272.3516 15.06398368320553
STARLINK-1039,44744,53.0548,0.0003533,15.08769135,537.5158397258738,542.4041670684737,1 44744U 19074AH  25248.96088387  .00010198  00000+0  65909-3 0  9994,2 44744  53.0548 335.5011 0003533 291.2140  68.8472 15.08769135320354
STARLINK-1042,44747,53.047,0.000264,15.40391887,443.1505478819281,446.7531387912104,1 44747U 19074AL  25249.29238193  .00022369  00000+0  55332-3 0  9998,2 44747  53.0470 253.0651 0002640 350.6356   9.4598 15.40391887321567
STARLINK-1043,44748,53.0561,0.0001017,15.06399658,546.5082980642765,547.9169141741613,1 44748U 19074AM  25249.24213818  .00010303  00000+0  70955-3 0  9994,2 44748  53.0561 334.6405 0001017  58.9070 301.2018 15.06399658320396
STARLINK-1046,44751,53.0561,0.0001432,15.06414037,546.1768331361609,548.1602406419252,1 44751U 19074AQ  25249.25686314  .00006783  00000+0  47367-3 0  9992,2 44751  53.0561 334.5731 0001432  72.0265 288.0880 15.06414037320393
STARLINK-1047,44752,53.0713,0.0004049,15.27693825,479.9303279481692,485.48624045931683,1 44752U 19074AR  25249.24367244  .00036644  00000+0  13420-2 0  9991,2 44752  53.0713 284.5079 0004049  19.8389 340.2766 15.27693825321106
STARLINK-1048,44753,53.055,0.0001221,15.06401546,546.3612351946131,548.0524041553772,1 44753U 19074AS  25249.28267530  .00004412  00000+0  31487-3 0  9995,2 44753  53.0550 294.4589 0001221  85.3699 274.7429 15.06401546320956
STARLINK-1053,44758,53.0426,0.0003248,15.53980273,402.9152693549322,407.3216721087201,1 44758U 19074AX  25249.27246234  .00047501  00000+0  72520-3 0  9996,2 44758  53.0426 272.7184 0003248  37.5131 322.6105 15.53980273321275
STARLINK-1054,44759,53.0479,0.0010195,15.60380459,379.66065265429097,393.45386424727076,1 44759U 19074AY  25249.00006944  .00196177  00000+0  22937-2 0  9990,2 44759  53.0479 304.6281 0010195 313.7585 284.7328 15.60380459  5832
STARLINK-1056,44761,53.0452,0.0011641,15.72159465,344.89102339134297,360.56181960928006,1 44761U 19074BA  25249.28201529  .00170232  00000+0  12424-2 0  9993,2 44761  53.0452 293.9524 0011641 342.0212  18.0392 15.72159465320973
STARLINK-1057,44762,53.0446,0.0005637,15.86921791,307.1482815544887,314.68952317881667,1 44762U 19074BB  25249.25002315  .00255671  00000+0  94561-3 0  9997,2 44762  53.0446 266.7857 0005637 337.2866 214.7000 15.86921791  6104
STARLINK-1060,44765,53.0551,0.0001811,15.13612414,523.9441769718378,526.4445635941556,1 44765U 19074BE  25249.25002315  .00074840  00000+0  40929-2 0  9995,2 44765  53.0551 314.4273 0001811  85.8279  97.9203 15.13612414  5903
STARLINK-1063,44768,53.0569,0.0001743,15.06410741,545.9715560000741,548.385721031661,1 44768U 19074BH  25248.98042633  .00008728  00000+0  60396-3 0  9997,2 44768  53.0569 335.8116 0001743  90.4806 269.6383 15.06410741320368
STARLINK-1067,44771,53.0556,0.0001268,15.06415974,546.2844723722546,548.0407283509066,1 44771U 19074BL  25248.96936116  .00013741  00000+0  93917-3 0  9993,2 44771  53.0556 335.8644 0001268  94.1248 265.9886 15.06415974320356
STARLINK-1068,44772,53.0544,0.000124,15.06405518,546.3359049905193,548.0533872387568,1 44772U 19074BM  25248.89379832  .00003669  00000+0  26506-3 0  9990,2 44772  53.0544 316.2047 0001240  88.5135 271.5996 15.06405518320613
STARLINK-1098,44917,53.0415,0.0005224,16.08873952,246.47163451290635,253.39664323880424,1 44917U 20001D   25248.31241359  .00726560  29019-3  81043-3 0  9996,2 44917  53.0415  43.9726 0005224 340.0748  20.0081 16.08873952312674
STARLINK-1104,44922,53.0427,0.0003766,16.11145771,241.20821848766536,246.19578762476795,1 44922U 20001J   25248.35439475  .00843054  41633-3  81184-3 0  9994,2 44922  53.0427  44.7765 0003766 330.7957  29.2866 16.11145771312668
STARLINK-1112,44925,53.0531,0.0005512,15.44863373,428.0259271234727,435.5331791316403,1 44925U 20001M   25249.22733174  .00096791  00000+0  20127-2 0  9993,2 44925  53.0531  69.1174 0005512 114.7568 245.4012 15.44863373312408
STARLINK-1114,44927,53.0539,0.0001218,15.06399839,546.3685438656757,548.0555588945927,1 44927U 20001P   25249.26423583  .00001612  00000+0  12708-3 0  9994,2 44927  53.0539  94.5388 0001218  93.1739 266.9389 15.06399839312051
STARLINK-1123,44930,53.0541,0.0001318,15.06408556,546.2725776709094,548.0980926384564,1 44930U 20001S   25249.27899207  .00006084  00000+0  42688-3 0  9997,2 44930  53.0541  94.4718 0001318 108.3593 251.7539 15.06408556312058
STARLINK-1144,44933,53.0477,0.0008723,15.47169654,419.07603897635363,430.94480997309256,1 44933U 20001V   25249.00006944  .00139981  00000+0  26687-2 0  9992,2 44933  53.0477  49.0789 0008723 227.8444 121.3161 15.47169654  5962
STARLINK-1071,44934,53.0383,0.0004023,16.05582763,256.3185918374429,261.658823181705,1 44934U 20001W   25248.34379140  .00608247  19051-3  83546-3 0  9994,2 44934  53.0383  21.6571 0004023 349.0134  11.0809 16.05582763312988
STARLINK-1091,44940,53.0441,0.0003578,15.70197276,355.9224047763428,360.74302250342316,1 44940U 20001AC  25249.25002315  .00186179  00000+0  14768-2 0  9993,2 44940  53.0441  36.1333 0003578 193.5469 102.3145 15.70197276  5904
STARLINK-1094,44941,53.0544,0.0001003,15.06384109,546.5656446473249,547.95487933808,1 44941U 20001AD  25249.22554960 -.00001327  00000+0 -70254-4 0  9996,2 44941  53.0544  74.7104 0001003  87.7818 272.3286 15.06384109312329
STARLINK-1096,44942,52.9936,0.0003268,15.73023378,348.0629372645026,352.46061870579433,1 44942U 20001AE  25249.10395551  .00097323  00000+0  69477-3 0  9996,2 44942  52.9936 223.7551 0003268  76.1973 283.9408 15.73023378315255
STARLINK-1122,44949,53.0535,0.0001246,15.06401979,546.3425949203684,548.0683902695228,1 44949U 20001AM  25249.24765621  .00004254  00000+0  30431-3 0  9996,2 44949  53.0535  74.6081 0001246  98.6584 261.4547 15.06401979312324
STARLINK-1066,44954,53.0444,0.0002953,15.97417533,279.6200626222717,283.5532954271039,1 44954U 20001AS  25249.25002315  .00467889  10220-3  10369-2 0  9990,2 44954  53.0444   2.8463 0002953 341.6330 121.0926 15.97417533  6114
STARLINK-1080,44961,53.0535,9.4e-05,15.06382249,546.6149748524103,547.9169506094049,1 44961U 20001AZ  25248.84770955 -.00003441  00000+0 -21231-3 0  9998,2 44961  53.0535  56.4070 0000940  99.1596 260.9499 15.06382249312556
STARLINK-1090,44968,53.0558,0.0001348,15.06390283,546.3077983037219,548.1748803039982,1 44968U 20001BG  25249.18314793  .00000141  00000+0  28336-4 0  9993,2 44968  53.0558  54.9032 0001348  90.3462 269.7681 15.06390283312600
STARLINK-1107,44972,53.0156,0.0006295,15.53013398,403.6617597960485,412.2054226704113,1 44972U 20001BL  25248.98780559  .00089205  00000+0  13957-2 0  9991,2 44972  53.0156 351.4850 0006295 359.7077   0.3928 15.53013398313472
STARLINK-1115,44973,53.0221,0.0008556,16.11789986,236.2732982589905,247.6015696303557,1 44973U 20001BM  25248.33440032  .00884637  46871-3  81234-3 0  9996,2 44973  53.0221 306.2675 0008556 358.2374   1.8628 16.11789986314040
